NORAD_CAT_ID,OBJECT_NAME,OBJECT_TYPE,EPOCH,MEAN_MOTION,ECCENTRICITY,INCLINATION,RA_OF_ASC_NODE,ARG_OF_PERICENTER,MEAN_ANOMALY,BSTAR,MEAN_MOTION_DOT,MEAN_MOTION_DDOT,TLE_LINE0,TLE_LINE1,TLE_LINE2,SEMIMAJOR_AXIS,PERIOD,APOGEE,PERIGEE,DECAYED
48148,STARLINK-2491,PAYLOAD,2023-01-14 11:43:42,15.06408544,0.0001912,53.0555,295.0643,51.129,308.9869,9.3615e-05,1.113e-05,0.0,0 STARLINK-2491,1 48148U 21027BJ  23014.48868085  .00001113  00000-0  93615-4 0  9998,2 48148  53.0555 295.0643 0001912  51.1290 308.9869 15.06408544 98658,6925.321999999999,95.592,548.511,545.863,0.0
48148,STARLINK-2491,PAYLOAD,2023-01-15 03:39:06,15.06392038,0.00017619999999999995,53.0552,292.087,52.38399999999999,307.7309,0.00018167,2.425e-05,0.0,0 STARLINK-2491,1 48148U 21027BJ  23015.15215756  .00002425  00000-0  18167-3 0  9999,2 48148  53.0552 292.0870 0001762  52.3840 307.7309 15.06392038 98758,6925.373000000001,95.593,548.4580000000002,546.018,0.0
48148,STARLINK-2491,PAYLOAD,2023-01-15 11:36:47,15.06408284,0.000179,53.0563,290.5974,50.6271,309.4877,0.00016475,2.174e-05,0.0,0 STARLINK-2491,1 48148U 21027BJ  23015.48388184  .00002174  00000-0  16475-3 0  9992,2 48148  53.0563 290.5974 0001790  50.6271 309.4877 15.06408284 98804,6925.323,95.592,548.428,545.9490000000002,0.0
48148,STARLINK-2491,PAYLOAD,2023-01-16 00:21:06,15.06398367,0.0001705,53.0546,288.2138,57.6036,302.5118,9.5884e-05,1.147e-05,0.0,0 STARLINK-2491,1 48148U 21027BJ  23016.01466417  .00001147  00000-0  95884-4 0  9999,2 48148  53.0546 288.2138 0001705  57.6036 302.5118 15.06398367 98883,6925.354,95.592,548.399,546.038,0.0
48148,STARLINK-2491,PAYLOAD,2023-01-16 11:29:52,15.06416974,0.00016969999999999998,53.0576,286.127,66.1353,293.9814,0.00022279,3.04e-05,0.0,0 STARLINK-2491,1 48148U 21027BJ  23016.47907908  .00003040  00000-0  22279-3 0  9995,2 48148  53.0576 286.1270 0001697  66.1353 293.9814 15.06416974 98956,6925.297,95.591,548.337,545.986,0.0
48148,STARLINK-2491,PAYLOAD,2023-01-16 17:52:01,15.06414959,0.0001517,53.054,284.9388,58.4146,301.6991,0.00028247,3.9299999999999986e-05,0.0,0 STARLINK-2491,1 48148U 21027BJ  23016.74446435  .00003930  00000-0  28247-3 0  9997,2 48148  53.0540 284.9388 0001517  58.4146 301.6991 15.06414959 99380,6925.303000000001,95.591,548.2180000000002,546.117,0.0
48148,STARLINK-2491,PAYLOAD,2023-01-17 03:25:16,15.0640348,0.0001388,53.0556,283.1528,38.2135,321.8952,-5.0743e-06,-3.57e-06,0.0,0 STARLINK-2491,1 48148U 21027BJ  23017.14254904 -.00000357  00000-0 -50743-5 0  9990,2 48148  53.0556 283.1528 0001388  38.2135 321.8952 15.06403480 99056,6925.338000000002,95.592,548.164,546.242,0.0
48148,STARLINK-2491,PAYLOAD,2023-01-17 17:45:09,15.0636527,0.0001296,53.0571,280.4702,60.2057,299.9061,-0.00038054,-5.94e-05,0.0,0 STARLINK-2491,1 48148U 21027BJ  23017.73969871 -.00005940  00000-0 -38054-3 0  9993,2 48148  53.0571 280.4702 0001296  60.2057 299.9061 15.06365270 99536,6925.455,95.594,548.2180000000002,546.422,0.0
48148,STARLINK-2491,PAYLOAD,2023-01-17 22:31:47,15.06366321,0.0001669,53.0546,279.5768,66.5573,293.5591,-0.00033551,-5.271e-05,0.0,0 STARLINK-2491,1 48148U 21027BJ  23017.93874295 -.00005271  00000-0 -33551-3 0  9994,2 48148  53.0546 279.5768 0001669  66.5573 293.5591 15.06366321 99171,6925.451999999998,95.594,548.4730000000002,546.161,0.0
48148,STARLINK-2491,PAYLOAD,2023-01-18 09:40:34,15.0636754,0.0001594,53.0546,277.492,61.5225,298.5924,-0.00017291,-2.854e-05,0.0,0 STARLINK-2491,1 48148U 21027BJ  23018.40317728 -.00002854  00000-0 -17291-3 0  9997,2 48148  53.0546 277.4920 0001594  61.5225 298.5924 15.06367540 99634,6925.448,95.594,548.4169999999998,546.2090000000002,0.0
48148,STARLINK-2491,PAYLOAD,2023-01-18 20:49:20,15.06386156,0.0001619,53.0556,275.4083,56.9126,303.2018,0.00033646,4.732e-05,0.0,0 STARLINK-2491,1 48148U 21027BJ  23018.86760219  .00004732  00000-0  33646-3 0  9991,2 48148  53.0556 275.4083 0001619  56.9126 303.2018 15.06386156 99316,6925.391,95.593,548.377,546.135,0.0
48148,STARLINK-2491,PAYLOAD,2023-01-19 09:33:39,15.06409347,0.0001628,53.0549,273.0251,68.094,292.0222,0.00075033,0.00010915,0.0,0 STARLINK-2491,1 48148U 21027BJ  23019.39837719  .00010915  00000-0  75033-3 0  9996,2 48148  53.0549 273.0251 0001628  68.0940 292.0222 15.06409347 99395,6925.32,95.592,548.312,546.057,0.0
48148,STARLINK-2491,PAYLOAD,2023-01-19 17:31:20,15.06437971,0.00012930000000000005,53.0543,271.5343,52.7659,307.3448,0.0012835999999999998,0.00018909,0.0,0 STARLINK-2491,1 48148U 21027BJ  23019.73010055  .00018909  00000-0  12836-2 0  9992,2 48148  53.0543 271.5343 0001293  52.7659 307.3448 15.06437971 99449,6925.232,95.59,547.993,546.202,0.0
48148,STARLINK-2491,PAYLOAD,2023-01-20 01:29:02,15.06427453,9.86e-05,53.0538,270.0474,53.0521,307.0558,0.0011595000000000002,0.00017044,0.0,0 STARLINK-2491,1 48148U 21027BJ  23020.06183229  .00017044  00000-0  11595-2 0  9994,2 48148  53.0538 270.0474 0000986  53.0521 307.0558 15.06427453 99490,6925.264,95.59,547.812,546.447,0.0
48148,STARLINK-2491,PAYLOAD,2023-01-20 09:26:44,15.06389359,0.0001649,53.0545,268.557,72.479,287.6379,0.00044918,6.413e-05,0.0,0 STARLINK-2491,1 48148U 21027BJ  23020.39357575  .00006413  00000-0  44918-3 0  9991,2 48148  53.0545 268.5570 0001649  72.4790 287.6379 15.06389359 99549,6925.3809999999985,95.593,548.388,546.104,0.0
48148,STARLINK-2491,PAYLOAD,2023-01-21 09:19:50,15.06390168,0.00012649999999999998,53.0529,264.0903,72.7633,287.3494,0.00048637,6.968e-05,0.0,0 STARLINK-2491,1 48148U 21027BJ  23021.38878419  .00006968  00000-0  48637-3 0  9993,2 48148  53.0529 264.0903 0001265  72.7633 287.3494 15.06390168 99696,6925.379,95.593,548.12,546.368,0.0
48148,STARLINK-2491,PAYLOAD,2023-01-23 01:08:20,15.06402949,0.00015460000000000002,53.0548,256.6447,69.6945,290.421,0.00023227,3.18e-05,0.0,0 STARLINK-2491,1 48148U 21027BJ  23023.04745456  .00003180  00000-0  23227-3 0  9993,2 48148  53.0548 256.6447 0001546  69.6945 290.4210 15.06402949 99940,6925.34,95.592,548.275,546.134,0.0
48148,STARLINK-2491,PAYLOAD,2023-01-23 09:06:02,15.06398858,0.0001365,53.0547,255.1535,71.5683,288.5454,0.00013748,1.767e-05,0.0,0 STARLINK-2491,1 48148U 21027BJ  23023.37919001  .00001767  00000-0  13748-3 0  9994,2 48148  53.0547 255.1535 0001365  71.5683 288.5454 15.06398858 99997,6925.352,95.592,548.1619999999998,546.2719999999998,0.0
48148,STARLINK-2491,PAYLOAD,2023-01-23 21:50:21,15.06390627,0.0001526,53.0543,252.7706,77.9383,282.1777,0.00026472,3.663e-05,0.0,0 STARLINK-2491,1 48148U 21027BJ  23023.90996846  .00003663  00000-0  26472-3 0  9990,2 48148  53.0543 252.7706 0001526  77.9383 282.1777 15.06390627100078,6925.377,95.593,548.299,546.185,0.0
48148,STARLINK-2491,PAYLOAD,2023-01-24 21:43:27,15.063885699999998,0.0001211,53.0532,248.3019,86.8139,273.2989,0.00011513,1.433e-05,0.0,0 STARLINK-2491,1 48148U 21027BJ  23024.90517549  .00001433  00000-0  11513-3 0  9993,2 48148  53.0532 248.3019 0001211  86.8139 273.2989 15.06388570100220,6925.384,95.593,548.087,546.41,0.0
48148,STARLINK-2491,PAYLOAD,2023-01-25 13:38:51,15.06389327,0.00012529999999999998,53.0531,245.3242,73.1266,286.986,2.2941e-05,6e-07,0.0,0 STARLINK-2491,1 48148U 21027BJ  23025.56864740  .00000060  00000-0  22941-4 0  9997,2 48148  53.0531 245.3242 0001253  73.1266 286.9860 15.06389327100714,6925.3809999999985,95.593,548.114,546.379,0.0
48148,STARLINK-2491,PAYLOAD,2023-01-25 20:00:59,15.06420152,0.0001436,53.0535,244.1342,63.3888,296.7248,-0.00026444,-4.22e-05,0.0,0 STARLINK-2491,1 48148U 21027BJ  23025.83402043 -.00004220  00000-0 -26444-3 0  9996,2 48148  53.0535 244.1342 0001436  63.3888 296.7248 15.06420152100362,6925.286999999998,95.591,548.146,546.1569999999998,0.0
48148,STARLINK-2491,PAYLOAD,2023-01-26 00:47:37,15.06399127,0.0001082,53.0525,243.2399,81.78,278.3312,0.00029162,4.065e-05,0.0,0 STARLINK-2491,1 48148U 21027BJ  23026.03307043  .00004065  00000-0  29162-3 0  9998,2 48148  53.0525 243.2399 0001082  81.7800 278.3312 15.06399127100396,6925.351,95.592,547.966,546.467,0.0
48148,STARLINK-2491,PAYLOAD,2023-01-26 13:31:56,15.06392492,0.00013630000000000006,53.0528,240.8565,70.421,289.6926,0.00014796,1.923e-05,0.0,0 STARLINK-2491,1 48148U 21027BJ  23026.56385034  .00001923  00000-0  14796-3 0  9999,2 48148  53.0528 240.8565 0001363  70.4210 289.6926 15.06392492100472,6925.3719999999985,95.593,548.18,546.293,0.0
48148,STARLINK-2491,PAYLOAD,2023-01-27 08:38:25,15.06391504,0.0001277,53.054,237.2822,85.6182,274.4953,0.00010003,1.209e-05,0.0,0 STARLINK-2491,1 48148U 21027BJ  23027.36001589  .00001209  00000-0  10003-3 0  9992,2 48148  53.0540 237.2822 0001277  85.6182 274.4953 15.06391504100983,6925.375,95.593,548.124,546.355,0.0
48148,STARLINK-2491,PAYLOAD,2023-01-27 19:47:12,15.06387459,9.21e-05,53.0537,235.1969,80.3429,279.7664,0.00016480000000000002,2.173e-05,0.0,0 STARLINK-2491,1 48148U 21027BJ  23027.82444640  .00002173  00000-0  16480-3 0  9998,2 48148  53.0537 235.1969 0000921  80.3429 279.7664 15.06387459100665,6925.387,95.593,547.89,546.614,0.0
48148,STARLINK-2491,PAYLOAD,2023-01-27 21:22:44,15.06397232,0.00013340000000000002,53.0537,234.8998,74.4831,285.6305,1.889e-05,0.0,0.0,0 STARLINK-2491,1 48148U 21027BJ  23027.89079052  .00000000  00000-0  18890-4 0  9991,2 48148  53.0537 234.8998 0001334  74.4831 285.6305 15.06397232101066,6925.357,95.592,548.146,546.298,0.0
48148,STARLINK-2491,PAYLOAD,2023-01-28 19:40:16,15.06402471,0.0001302,53.0539,230.7306,75.688,284.4253,0.00010101,1.224e-05,0.0,0 STARLINK-2491,1 48148U 21027BJ  23028.81964061  .00001224  00000-0  10101-3 0  9992,2 48148  53.0539 230.7306 0001302  75.6880 284.4253 15.06402471101205,6925.340999999999,95.59200000000001,548.1080000000001,546.304,0.0
48148,STARLINK-2491,PAYLOAD,2023-01-29 16:22:17,15.06396719,0.00012590000000000002,53.0538,226.8586,76.1917,283.9212,0.00012036,1.512e-05,0.0,0 STARLINK-2491,1 48148U 21027BJ  23029.68215220  .00001512  00000-0  12036-3 0  9993,2 48148  53.0538 226.8586 0001259  76.1917 283.9212 15.06396719100944,6925.359,95.59200000000001,548.096,546.352,0.0
